NETSAT-3                
1 46505U 20068V   26095.74836243  .00024309  00000+0  60520-3 0  9998
2 46505  97.8682  96.6175 0004060 216.2678 143.8292 15.40252682304526
NETSAT-1                
1 46506U 20068W   26095.52168094  .00016506  00000+0  52086-3 0  9995
2 46506  97.8758  91.5248 0003200 253.0342 107.0548 15.32938460304160
NETSAT-2                
1 46507U 20068X   26095.72980176  .00028587  00000+0  64870-3 0  9997
2 46507  97.8656  97.9501 0002223 224.5506 135.5562 15.43022165304552
TIANQI-6                
1 46810U 20076D   26095.79071316  .00005444  00000+0  36026-3 0  9996
2 46810  34.9978 132.6174 0011274 251.4316 108.5169 15.06696646297650
KSM1-C                  
1 46906U 20081B   26095.60433682  .00011611  00000+0  45008-3 0  9999
2 46906  36.8935 146.6238 0002960 291.6123  68.4310 15.25556357298074
KSM1-D                  
1 46907U 20081C   26095.84170150  .00006765  00000+0  27894-3 0  9991
2 46907  36.8955 152.8401 0003497 335.8058  24.2526 15.23713091298057
KSM1-A                  
1 46912U 20081H   26095.57212781  .00012307  00000+0  48705-3 0  9997
2 46912  36.8947 148.6948 0000892 107.7245 252.3601 15.24850395298084
R2                      
1 46913U 20081J   26095.83210961  .00009718  00000+0  39073-3 0  9995
2 46913  36.8962 146.7290 0005535  16.7529 343.3401 15.24392279300933
KSM1-B                  
1 46914U 20081K   26095.57339907  .00009949  00000+0  41053-3 0  9996
2 46914  36.9010 154.9254 0004194  11.9566 348.1281 15.23519486301107
GONETS-M 20             
1 47227U 20091A   26095.80047535  .00000038  00000+0  20280-3 0  9993
2 47227  82.5094 347.4405 0021002 341.3642  18.6666 12.42891292242086
GONETS-M 21             
1 47228U 20091B   26095.85440310  .00000091  00000+0  58389-3 0  9997
2 47228  82.5019 346.1591 0015094 356.4112   3.6857 12.42882649242081
GONETS-M 22             
1 47229U 20091C   26095.82782727 -.00000025  00000+0 -25054-3 0  9998
2 47229  82.5075 347.0400 0021760 336.4707  23.5375 12.42888901242036
CUBEL                   
1 47448U 21006AM  26095.60230845  .00010451  00000+0  26509-3 0  9991
2 47448  97.2410 146.9244 0008403  80.1898 280.0297 15.39833869288585
ASTROCAST-0103          
1 47487U 21006CC  26095.74241499  .00154872  00000+0  78918-3 0  9993
2 47487  97.2608 166.4171 0004198 151.5424 208.6075 15.80968579289784
ARKTIKA-M 1             
1 47719U 21016A   26086.24697042 -.00000098  00000+0  00000+0 0  9990
2 47719  63.2179  69.3783 7253959 269.5617  15.0995  2.00616454 37142
STARLINK-2342           
1 47883U 21021Z   26095.82810963  .00093186  00000+0  16909-2 0  9998
2 47883  53.1572 138.7671 0004369  43.2390 316.8961 15.48838035280628
GRUS-1B                 
1 47934U 21022C   26095.87853037  .00002473  00000+0  20935-3 0  9994
2 47934  97.5461 341.4206 0016395 200.4439 159.6129 14.98811629275069
