[{"OBJECT_NAME":"NETSAT-3","OBJECT_ID":"2020-068V","EPOCH":"2026-04-05T17:57:38.513952","MEAN_MOTION":15.40252682,"ECCENTRICITY":0.000406,"INCLINATION":97.8682,"RA_OF_ASC_NODE":96.6175,"ARG_OF_PERICENTER":216.2678,"MEAN_ANOMALY":143.8292,"EPHEMERIS_TYPE":0,"CLASSIFICATION_TYPE":"U","NORAD_CAT_ID":46505,"ELEMENT_SET_NO":999,"REV_AT_EPOCH":30452,"BSTAR":0.0006052,"MEAN_MOTION_DOT":0.00024309,"MEAN_MOTION_DDOT":0},{"OBJECT_NAME":"NETSAT-1","OBJECT_ID":"2020-068W","EPOCH":"2026-04-05T12:31:13.233216","MEAN_MOTION":15.3293846,"ECCENTRICITY":0.00032002,"INCLINATION":97.8758,"RA_OF_ASC_NODE":91.5248,"ARG_OF_PERICENTER":253.0342,"MEAN_ANOMALY":107.0548,"EPHEMERIS_TYPE":0,"CLASSIFICATION_TYPE":"U","NORAD_CAT_ID":46506,"ELEMENT_SET_NO":999,"REV_AT_EPOCH":30416,"BSTAR":0.00052086418,"MEAN_MOTION_DOT":0.00016506,"MEAN_MOTION_DDOT":0},{"OBJECT_NAME":"NETSAT-2","OBJECT_ID":"2020-068X","EPOCH":"2026-04-05T17:30:54.872064","MEAN_MOTION":15.43022165,"ECCENTRICITY":0.0002223,"INCLINATION":97.8656,"RA_OF_ASC_NODE":97.9501,"ARG_OF_PERICENTER":224.5506,"MEAN_ANOMALY":135.5562,"EPHEMERIS_TYPE":0,"CLASSIFICATION_TYPE":"U","NORAD_CAT_ID":46507,"ELEMENT_SET_NO":999,"REV_AT_EPOCH":30455,"BSTAR":0.0006487,"MEAN_MOTION_DOT":0.00028587,"MEAN_MOTION_DDOT":0},{"OBJECT_NAME":"TIANQI-6","OBJECT_ID":"2020-076D","EPOCH":"2026-04-05T18:58:37.617024","MEAN_MOTION":15.06696646,"ECCENTRICITY":0.0011274,"INCLINATION":34.9978,"RA_OF_ASC_NODE":132.6174,"ARG_OF_PERICENTER":251.4316,"MEAN_ANOMALY":108.5169,"EPHEMERIS_TYPE":0,"CLASSIFICATION_TYPE":"U","NORAD_CAT_ID":46810,"ELEMENT_SET_NO":999,"REV_AT_EPOCH":29765,"BSTAR":0.00036026,"MEAN_MOTION_DOT":5.444e-5,"MEAN_MOTION_DDOT":0},{"OBJECT_NAME":"KSM1-C","OBJECT_ID":"2020-081B","EPOCH":"2026-04-05T14:30:14.701248","MEAN_MOTION":15.25556357,"ECCENTRICITY":0.000296,"INCLINATION":36.8935,"RA_OF_ASC_NODE":146.6238,"ARG_OF_PERICENTER":291.6123,"MEAN_ANOMALY":68.431,"EPHEMERIS_TYPE":0,"CLASSIFICATION_TYPE":"U","NORAD_CAT_ID":46906,"ELEMENT_SET_NO":999,"REV_AT_EPOCH":29807,"BSTAR":0.00045008,"MEAN_MOTION_DOT":0.00011611,"MEAN_MOTION_DDOT":0},{"OBJECT_NAME":"KSM1-D","OBJECT_ID":"2020-081C","EPOCH":"2026-04-05T20:12:03.009600","MEAN_MOTION":15.23713091,"ECCENTRICITY":0.0003497,"INCLINATION":36.8955,"RA_OF_ASC_NODE":152.8401,"ARG_OF_PERICENTER":335.8058,"MEAN_ANOMALY":24.2526,"EPHEMERIS_TYPE":0,"CLASSIFICATION_TYPE":"U","NORAD_CAT_ID":46907,"ELEMENT_SET_NO":999,"REV_AT_EPOCH":29805,"BSTAR":0.00027894,"MEAN_MOTION_DOT":6.765e-5,"MEAN_MOTION_DDOT":0},{"OBJECT_NAME":"KSM1-A","OBJECT_ID":"2020-081H","EPOCH":"2026-04-05T13:43:51.842784","MEAN_MOTION":15.24850395,"ECCENTRICITY":8.92e-5,"INCLINATION":36.8947,"RA_OF_ASC_NODE":148.6948,"ARG_OF_PERICENTER":107.7245,"MEAN_ANOMALY":252.3601,"EPHEMERIS_TYPE":0,"CLASSIFICATION_TYPE":"U","NORAD_CAT_ID":46912,"ELEMENT_SET_NO":999,"REV_AT_EPOCH":29808,"BSTAR":0.00048705,"MEAN_MOTION_DOT":0.00012307,"MEAN_MOTION_DDOT":0},{"OBJECT_NAME":"R2","OBJECT_ID":"2020-081J","EPOCH":"2026-04-05T19:58:14.270304","MEAN_MOTION":15.24392279,"ECCENTRICITY":0.0005535,"INCLINATION":36.8962,"RA_OF_ASC_NODE":146.729,"ARG_OF_PERICENTER":16.7529,"MEAN_ANOMALY":343.3401,"EPHEMERIS_TYPE":0,"CLASSIFICATION_TYPE":"U","NORAD_CAT_ID":46913,"ELEMENT_SET_NO":999,"REV_AT_EPOCH":30093,"BSTAR":0.00039073,"MEAN_MOTION_DOT":9.718e-5,"MEAN_MOTION_DDOT":0},{"OBJECT_NAME":"KSM1-B","OBJECT_ID":"2020-081K","EPOCH":"2026-04-05T13:45:41.679648","MEAN_MOTION":15.23519486,"ECCENTRICITY":0.0004194,"INCLINATION":36.901,"RA_OF_ASC_NODE":154.9254,"ARG_OF_PERICENTER":11.9566,"MEAN_ANOMALY":348.1281,"EPHEMERIS_TYPE":0,"CLASSIFICATION_TYPE":"U","NORAD_CAT_ID":46914,"ELEMENT_SET_NO":999,"REV_AT_EPOCH":30110,"BSTAR":0.00041053,"MEAN_MOTION_DOT":9.949e-5,"MEAN_MOTION_DDOT":0},{"OBJECT_NAME":"GONETS-M 20","OBJECT_ID":"2020-091A","EPOCH":"2026-04-05T19:12:41.070240","MEAN_MOTION":12.42891292,"ECCENTRICITY":0.0021002,"INCLINATION":82.5094,"RA_OF_ASC_NODE":347.4405,"ARG_OF_PERICENTER":341.3642,"MEAN_ANOMALY":18.6666,"EPHEMERIS_TYPE":0,"CLASSIFICATION_TYPE":"U","NORAD_CAT_ID":47227,"ELEMENT_SET_NO":999,"REV_AT_EPOCH":24208,"BSTAR":0.0002028,"MEAN_MOTION_DOT":3.8e-7,"MEAN_MOTION_DDOT":0},{"OBJECT_NAME":"GONETS-M 21","OBJECT_ID":"2020-091B","EPOCH":"2026-04-05T20:30:20.427840","MEAN_MOTION":12.42882649,"ECCENTRICITY":0.0015094,"INCLINATION":82.5019,"RA_OF_ASC_NODE":346.1591,"ARG_OF_PERICENTER":356.4112,"MEAN_ANOMALY":3.6857,"EPHEMERIS_TYPE":0,"CLASSIFICATION_TYPE":"U","NORAD_CAT_ID":47228,"ELEMENT_SET_NO":999,"REV_AT_EPOCH":24208,"BSTAR":0.00058389,"MEAN_MOTION_DOT":9.1e-7,"MEAN_MOTION_DDOT":0},{"OBJECT_NAME":"GONETS-M 22","OBJECT_ID":"2020-091C","EPOCH":"2026-04-05T19:52:04.276128","MEAN_MOTION":12.42888901,"ECCENTRICITY":0.002176,"INCLINATION":82.5075,"RA_OF_ASC_NODE":347.04,"ARG_OF_PERICENTER":336.4707,"MEAN_ANOMALY":23.5375,"EPHEMERIS_TYPE":0,"CLASSIFICATION_TYPE":"U","NORAD_CAT_ID":47229,"ELEMENT_SET_NO":999,"REV_AT_EPOCH":24203,"BSTAR":-0.00025054,"MEAN_MOTION_DOT":-2.5e-7,"MEAN_MOTION_DDOT":0},{"OBJECT_NAME":"CUBEL","OBJECT_ID":"2021-006AM","EPOCH":"2026-04-05T14:27:19.450080","MEAN_MOTION":15.39833869,"ECCENTRICITY":0.0008403,"INCLINATION":97.241,"RA_OF_ASC_NODE":146.9244,"ARG_OF_PERICENTER":80.1898,"MEAN_ANOMALY":280.0297,"EPHEMERIS_TYPE":0,"CLASSIFICATION_TYPE":"U","NORAD_CAT_ID":47448,"ELEMENT_SET_NO":999,"REV_AT_EPOCH":28858,"BSTAR":0.00026509,"MEAN_MOTION_DOT":0.00010451,"MEAN_MOTION_DDOT":0},{"OBJECT_NAME":"ASTROCAST-0103","OBJECT_ID":"2021-006CC","EPOCH":"2026-04-05T17:49:04.655136","MEAN_MOTION":15.80968579,"ECCENTRICITY":0.0004198,"INCLINATION":97.2608,"RA_OF_ASC_NODE":166.4171,"ARG_OF_PERICENTER":151.5424,"MEAN_ANOMALY":208.6075,"EPHEMERIS_TYPE":0,"CLASSIFICATION_TYPE":"U","NORAD_CAT_ID":47487,"ELEMENT_SET_NO":999,"REV_AT_EPOCH":28978,"BSTAR":0.00078918,"MEAN_MOTION_DOT":0.00154872,"MEAN_MOTION_DDOT":0},{"OBJECT_NAME":"ARKTIKA-M 1","OBJECT_ID":"2021-016A","EPOCH":"2026-03-27T05:55:38.244288","MEAN_MOTION":2.00616454,"ECCENTRICITY":0.7253959,"INCLINATION":63.2179,"RA_OF_ASC_NODE":69.3783,"ARG_OF_PERICENTER":269.5617,"MEAN_ANOMALY":15.0995,"EPHEMERIS_TYPE":0,"CLASSIFICATION_TYPE":"U","NORAD_CAT_ID":47719,"ELEMENT_SET_NO":999,"REV_AT_EPOCH":3714,"BSTAR":0,"MEAN_MOTION_DOT":-9.8e-7,"MEAN_MOTION_DDOT":0},{"OBJECT_NAME":"STARLINK-2342","OBJECT_ID":"2021-021Z","EPOCH":"2026-04-05T19:52:28.672032","MEAN_MOTION":15.48838035,"ECCENTRICITY":0.0004369,"INCLINATION":53.1572,"RA_OF_ASC_NODE":138.7671,"ARG_OF_PERICENTER":43.239,"MEAN_ANOMALY":316.8961,"EPHEMERIS_TYPE":0,"CLASSIFICATION_TYPE":"U","NORAD_CAT_ID":47883,"ELEMENT_SET_NO":999,"REV_AT_EPOCH":28062,"BSTAR":0.0016909,"MEAN_MOTION_DOT":0.00093186,"MEAN_MOTION_DDOT":0},{"OBJECT_NAME":"GRUS-1B","OBJECT_ID":"2021-022C","EPOCH":"2026-04-05T21:05:05.023968","MEAN_MOTION":14.98811629,"ECCENTRICITY":0.0016395,"INCLINATION":97.5461,"RA_OF_ASC_NODE":341.4206,"ARG_OF_PERICENTER":200.4439,"MEAN_ANOMALY":159.6129,"EPHEMERIS_TYPE":0,"CLASSIFICATION_TYPE":"U","NORAD_CAT_ID":47934,"ELEMENT_SET_NO":999,"REV_AT_EPOCH":27506,"BSTAR":0.00020935,"MEAN_MOTION_DOT":2.473e-5,"MEAN_MOTION_DDOT":0}]
